CUTE-1 (CO-55)          
1 27844U 03031E   23287.58514699  .00000837  00000+0  39153-3 0  9992
2 27844  98.6806 293.1165 0010552 135.1079 225.0954 14.22916718 52713
CUBESAT XI-IV (CO-57)   
1 27848U 03031J   23287.49732530  .00000716  00000+0  34114-3 0  9990
2 27848  98.6842 293.3977 0010196 149.6516 210.5254 14.22408430 52461
CUBESAT XI-V            
1 28895U 05043F   23287.59185685  .00003940  00000+0  72279-3 0  9998
2 28895  98.1705  58.8864 0017069  58.3070 301.9795 14.66212092958301
CUTE-1.7+APD II (CO-65) 
1 32785U 08021C   23287.44414220  .00009241  00000+0  88241-3 0  9990
2 32785  97.7207 251.0154 0013769  70.9399 289.3311 14.93432808838615
AAUSAT-II               
1 32788U 08021F   23287.47801566  .00022366  00000+0  14939-2 0  9994
2 32788  97.5733 264.5396 0005270 325.3549  34.7335 15.06998225841054
DELFI-C3 (DO-64)        
1 32789U 08021G   23287.59584714  .00352659  00000+0  34383-2 0  9997
2 32789  97.2847 309.9684 0005287  93.0351 267.1514 15.65100534845845
SEEDS II (CO-66)        
1 32791U 08021J   23287.41312627  .00014841  00000+0  12413-2 0  9991
2 32791  97.6718 256.3609 0012611  24.7702 335.4123 14.98516886839508
SWISSCUBE               
1 35932U 09051B   23287.61177203  .00002558  00000+0  56619-3 0  9995
2 35932  98.5006 160.7117 0007761   8.6071 351.5259 14.58078810746614
BEESAT-1                
1 35933U 09051C   23287.58279341  .00002229  00000+0  49618-3 0  9994
2 35933  98.4934 161.8850 0006248  22.7020 337.4453 14.57942319746689
ITUPSAT1                
1 35935U 09051E   23287.56435293  .00002035  00000+0  46359-3 0  9998
2 35935  98.5034 161.7657 0008612  24.8318 335.3292 14.56966697746342
TISAT 1                 
1 36799U 10035E   23287.59542018  .00011224  00000+0  95889-3 0  9990
2 36799  98.1152 161.8982 0009146 304.2892  55.7463 14.97807822720091
M-CUBED & EXP-1 PRIME   
1 37855U 11061F   23287.35504791  .00056125  00000+0  14217-2 0  9998
2 37855 101.7065 317.0420 0102479  33.5310 327.2348 15.34235980654784
AEROCUBE 4.5A           
1 38767U 12048K   23287.53361433  .00016222  00000+0  10583-2 0  9997
2 38767  64.6658  22.4869 0106994 112.0144 249.2382 15.03374328223318
AEROCUBE 4.5B           
1 38768U 12048L   23287.55015224  .00020388  00000+0  10793-2 0  9995
2 38768  64.6633 321.8776 0085767 102.8408 258.2313 15.12302173223996
STRAND-1                
1 39090U 13009E   23287.52938109  .00000832  00000+0  30250-3 0  9998
2 39090  98.3848 117.6179 0007774 269.3796  90.6500 14.35728528556845
BRITE-AUSTRIA           
1 39091U 13009F   23287.53902329  .00000558  00000+0  20834-3 0  9997
2 39091  98.3882 116.8718 0009237 276.8930  83.1205 14.35573739556877
BEESAT-3                
1 39135U 13015F   23287.42572662  .00156220  00000+0  18844-2 0  9999
2 39135  64.8496 292.8529 0012615 271.8902  88.0800 15.59929116580411
BEESAT-2                
1 39136U 13015G   23287.41560485  .00110670  00000+0  16996-2 0  9994
2 39136  64.8623 307.2316 0023695 271.1385  88.7044 15.53363302580103
NEE-01 PEGASO           
1 39151U 13018B   23287.26666327  .00006458  00000+0  78793-3 0  9991
2 39151  98.0187  37.7539 0016778 122.6317 237.6518 14.83580944565339
ESTCUBE 1               
1 39161U 13021C   23287.44587616  .00004212  00000+0  63474-3 0  9995
2 39161  97.8613 356.2989 0008037 311.7605  48.2917 14.74883122560708
POPACS 1                
1 39268U 13055D   23287.38633037  .00065198  00000+0  13542-2 0  9992
2 39268  80.9879  70.5244 0476758 155.7626 206.6845 14.74493069523954
POPACS 2                
1 39269U 13055E   23287.34356616  .00023559  00000+0  58825-3 0  9993
2 39269  81.0052 145.3078 0591033 350.4858   8.5506 14.46788569519781
POPACS 3                
1 39270U 13055F   23287.00798825  .00014965  00000+0  42525-3 0  9991
2 39270  81.0140 188.9426 0653908 113.1375 254.0071 14.30739342497541
ZACUBE-1 (TSHEPISOSAT)  
1 39417U 13066B   23287.46071568  .00007802  00000+0  87430-3 0  9990
2 39417  97.6997 245.1061 0051817 254.5665 104.9824 14.86124291534904
WNISAT-1                
1 39423U 13066H   23287.59179685  .00001637  00000+0  32353-3 0  9994
2 39423  97.6873 136.8006 0173332  63.1267 298.7532 14.54461420524582
TRITON-1                
1 39427U 13066M   23287.58658933  .00004528  00000+0  66924-3 0  9998
2 39427  97.8347 208.9943 0107204 153.9764 206.6890 14.71823060529918
DELFI-N3XT              
1 39428U 13066N   23287.57466980  .00007667  00000+0  10672-2 0  9992
2 39428  97.8319 208.2646 0108253 164.3935 196.0655 14.74044543529715
GOMX-1                  
1 39430U 13066Q   23287.60849583  .00005179  00000+0  89068-3 0  9995
2 39430  97.7609 171.7238 0143049 315.9032  43.0834 14.62481467526808
CUBEBUG-2 (LO-74)       
1 39440U 13066AA  23287.44271188  .00009488  00000+0  11898-2 0  9990
2 39440  97.7833 232.4269 0073960   0.6653 359.4645 14.80452509531791
NEE-02 KRYSAOR          
1 39441U 13066AB  23287.38514837  .00006850  00000+0  90574-3 0  9994
2 39441  97.7939 228.9747 0077787  18.7236 341.6808 14.78155062531456
FUNCUBE-1 (AO-73)       
1 39444U 13066AE  23287.41234154  .00009480  00000+0  10119-2 0  9990
2 39444  97.6858 247.7294 0049977 238.1181 121.5168 14.88102140533367
UWE-3                   
1 39446U 13066AG  23287.42354482  .00009558  00000+0  11376-2 0  9992
2 39446  97.7482 238.5109 0062683 310.1848  49.3888 14.83152584532093
BRITE-CA1 (TORONTO)     
1 40020U 14033L   23287.35844068  .00003664  00000+0  60793-3 0  9993
2 40020  97.8437  68.9176 0085181 159.2171 201.2532 14.68383797498633
DUCHIFAT-1              
1 40021U 14033M   23287.44624489  .00017601  00000+0  14079-2 0  9998
2 40021  98.0681 255.4837 0010149 215.3323 144.7228 15.00227996507055
NANOSATC-BR1            
1 40024U 14033Q   23287.45356123  .00014129  00000+0  12052-2 0  9990
2 40024  98.0432 245.7846 0007966 240.9402 119.1021 14.97813502506256
QB50P1                  
1 40025U 14033R   23287.57627059  .00010061  00000+0  91576-3 0  9993
2 40025  98.0084 236.6367 0009098 257.6013 102.4189 14.95357634505973
QB50P2                  
1 40032U 14033Y   23287.56751879  .00009689  00000+0  90241-3 0  9990
2 40032  97.9760 229.7953 0008753 255.0121 105.0130 14.94461780505795
PERSEUS-M2              
1 40037U 14033AD  23287.51492312  .00003539  00000+0  38201-3 0  9990
2 40037  97.9089 212.9664 0012174 291.0187  68.9727 14.88969858505107
PERSEUS-M1              
1 40039U 14033AF  23287.36099033  .00004115  00000+0  44659-3 0  9993
2 40039  97.8929 209.5284 0011972 291.2144  68.7793 14.88657252504945
POLYITAN-1              
1 40042U 14033AJ  23287.42978254  .00015375  00000+0  13494-2 0  9997
2 40042  98.0213 238.7418 0010133 246.4997 113.5159 14.96667518505869
TIGRISAT                
1 40043U 14033AK  23287.43601232  .00004107  00000+0  57198-3 0  9999
2 40043  97.6734  96.5455 0057740  27.5419 332.8831 14.77136123501014
AEROCUBE 6A             
1 40045U 14033AM  23287.48445126  .00007519  00000+0  97727-3 0  9996
2 40045  97.6592 106.6008 0053979  10.5827 349.6508 14.79930242501260
AEROCUBE 6B             
1 40046U 14033AN  23287.25299327  .00008587  00000+0  10958-2 0  9998
2 40046  97.6547 104.9046 0052514   7.9631 352.2403 14.80712029501268
UKUBE-1                 
1 40074U 14037F   23287.27155915  .00010314  00000+0  10837-2 0  9996
2 40074  98.3354 198.0434 0004645 139.7549 220.4012 14.89657225501977
BRITE-PL2 (HEWELIUSZ)   
1 40119U 14049B   23287.22464482  .00005102  00000+0  57119-3 0  9990
2 40119  97.8837  23.4101 0017768  96.6100 263.7139 14.87208510495859
GRIFEX                  
1 40379U 15003D   23287.43523550  .00100141  00000+0  14071-2 0  9992
2 40379  99.0828 254.1439 0059676 212.8480 146.9054 15.54238148481808
CP10 (EXOCUBE)          
1 40380U 15003E   23287.36675174  .00057838  00000+0  12656-2 0  9997
2 40380  99.0894 241.5717 0079908 256.4420 102.7910 15.40548528481015
EXACTVIEW 9             
1 40936U 15052G   23287.48298049  .00004810  00000+0  54676-3 0  9994
2 40936   6.0046 314.4567 0010154 186.6847 173.3146 14.79135349434946
AEROCUBE 5C             
1 40965U 15058B   23287.60155094  .00004107  00000+0  43853-3 0  9992
2 40965  64.7743  36.9845 0169285  28.3758 332.6439 14.80219212220516
AEROCUBE 7              
1 40966U 15058C   23287.59517474  .00005334  00000+0  55210-3 0  9998
2 40966  64.7731  32.5871 0166375  28.0366 332.9578 14.81356030220545
GALASSIA                
1 41170U 15077E   23287.44514413  .00173519  00000+0  21411-2 0  9997
2 41170  14.9866  33.4854 0005048  28.3309 331.7292 15.58163416434556
VELOX-II                
1 41171U 15077F   23287.30121461  .00049370  00000+0  14245-2 0  9994
2 41171  14.9897 159.2183 0004685  74.5243 285.5597 15.33782551433530
HORYU-4                 
1 41340U 16012D   23287.60028843  .00013915  00000+0  82833-3 0  9990
2 41340  31.0018 134.1807 0011711 359.6090   0.4538 15.09981218420778
E-ST@R-II               
1 41459U 16025D   23287.52667201  .00063644  00000+0  14157-2 0  9990
2 41459  98.1684 141.6019 0090024  41.9482 318.8610 15.39169158411197
RAVAN                   
1 41849U 16067B   23287.42166524  .00015259  00000+0  99575-3 0  9997
2 41849  98.0490  87.1083 0015846 143.8659 216.3642 15.07863448378722
CELTEE 1                
1 41850U 16067C   23287.38159432  .00010787  00000+0  80741-3 0  9990
2 41850  98.0780  80.3072 0000518 313.1732  46.9449 15.02925901378318
OPTICUBE 04             
1 41851U 16067D   23287.39595121  .00005538  00000+0  44206-3 0  9995
2 41851  98.0614  77.9119 0017785 161.8415 198.3447 15.00595553378201
AEROCUBE 8D             
1 41852U 16067E   23287.38205890  .00012592  00000+0  92686-3 0  9999
2 41852  98.0822  79.5599 0005332 210.8049 149.2863 15.03506366378266
AEROCUBE 8C             
1 41853U 16067F   23287.38307845  .00012231  00000+0  90228-3 0  9993
2 41853  98.0620  78.7834 0009019 147.0226 213.1562 15.03409730378253
